NORAD_CAT_ID,OBJECT_NAME,OBJECT_TYPE,EPOCH,MEAN_MOTION,ECCENTRICITY,INCLINATION,RA_OF_ASC_NODE,ARG_OF_PERICENTER,MEAN_ANOMALY,BSTAR,MEAN_MOTION_DOT,MEAN_MOTION_DDOT,TLE_LINE0,TLE_LINE1,TLE_LINE2,SEMIMAJOR_AXIS,PERIOD,APOGEE,PERIGEE,DECAYED
51969.0,STARLINK-3680,PAYLOAD,2022-12-01 17:43:10,15.08844381,0.0002878999999999,53.2173,348.991,31.5197,328.5967,0.00019604,2.833e-05,0.0,0 STARLINK-3680,1 51969U 22025P   22335.73831192  .00002833  00000-0  19604-3 0  9999,2 51969  53.2173 348.9910 0002879  31.5197 328.5967 15.08844381 42063,6917.8669999999975,95.437,541.724,537.74,0.0
51969.0,STARLINK-3680,PAYLOAD,2022-12-02 01:40:05,15.08846889,0.0002869,53.218,347.5048,29.6128,330.5026,9.559e-05,1.233e-05,0.0,0 STARLINK-3680,1 51969U 22025P   22336.06951225  .00001233  00000-0  95590-4 0  9998,2 51969  53.2180 347.5048 0002869  29.6128 330.5026 15.08846889 41006,6917.859,95.437,541.7090000000002,537.74,0.0
51969.0,STARLINK-3680,PAYLOAD,2022-12-02 17:33:57,15.08846849,0.0002916,53.2182,344.5308,30.5847,329.5315,3.2493e-05,2.29e-06,0.0,0 STARLINK-3680,1 51969U 22025P   22336.73191111  .00000229  00000-0  32493-4 0  9999,2 51969  53.2182 344.5308 0002916  30.5847 329.5315 15.08846849 41102,6917.859,95.437,541.742,537.707,0.0
51969.0,STARLINK-3680,PAYLOAD,2022-12-03 06:17:02,15.08835393,0.0002935,53.2178,342.1522,31.0382,329.0783,-6.1695e-05,-1.27e-05,0.0,0 STARLINK-3680,1 51969U 22025P   22337.26183905 -.00001270  00000-0 -61695-4 0  9995,2 51969  53.2178 342.1522 0002935  31.0382 329.0783 15.08835393 42297,6917.894,95.438,541.79,537.729,0.0
51969.0,STARLINK-3680,PAYLOAD,2022-12-03 11:03:12,15.08846751,0.0002886,53.2176,341.2599,30.8003,329.3158,-0.00021473,-3.705e-05,0.0,0 STARLINK-3680,1 51969U 22025P   22337.46055614 -.00003705  00000-0 -21473-3 0  9996,2 51969  53.2176 341.2599 0002886  30.8003 329.3158 15.08846751 41211,6917.86,95.437,541.721,537.7280000000002,0.0
51969.0,STARLINK-3680,PAYLOAD,2022-12-03 17:24:44,15.08843884,0.0002562,53.2179,340.071,34.6047,325.5111,-0.00010602,-1.976e-05,0.0,0 STARLINK-3680,1 51969U 22025P   22337.72551382 -.00001976  00000-0 -10602-3 0  9998,2 51969  53.2179 340.0710 0002562  34.6047 325.5111 15.08843884 42365,6917.869000000002,95.437,541.506,537.961,0.0
51969.0,STARLINK-3680,PAYLOAD,2022-12-04 09:18:34,15.08847494,0.0002901,53.217,337.0953,30.2786,329.8374,5.2182e-05,5.42e-06,0.0,0 STARLINK-3680,1 51969U 22025P   22338.38790491  .00000542  00000-0  52182-4 0  9993,2 51969  53.2170 337.0953 0002901  30.2786 329.8374 15.08847494 42460,6917.857,95.437,541.729,537.716,0.0
51969.0,STARLINK-3680,PAYLOAD,2022-12-05 02:47:49,15.08839602,0.0002989,53.2167,333.826,29.4008,330.7152,8.5247e-05,1.068e-05,0.0,0 STARLINK-3680,1 51969U 22025P   22339.11654800  .00001068  00000-0  85247-4 0  9990,2 51969  53.2167 333.8260 0002989  29.4008 330.7152 15.08839602 42573,6917.882,95.438,541.814,537.679,0.0
51969.0,STARLINK-3680,PAYLOAD,2022-12-05 09:09:22,15.08839073,0.000314,53.2173,332.6379,30.9961,329.1216,0.00012106,1.639e-05,0.0,0 STARLINK-3680,1 51969U 22025P   22339.38150773  .00001639  00000-0  12106-3 0  9996,2 51969  53.2173 332.6379 0003140  30.9961 329.1216 15.08839073 41500,6917.8830000000025,95.438,541.92,537.576,0.0
51969.0,STARLINK-3680,PAYLOAD,2022-12-05 17:06:17,15.08840088,0.0003185,53.2175,331.1512,31.6796,328.4387,0.0001425,1.98e-05,0.0,0 STARLINK-3680,1 51969U 22025P   22339.71270650  .00001980  00000-0  14250-3 0  9991,2 51969  53.2175 331.1512 0003185  31.6796 328.4387 15.08840088 41552,6917.88,95.438,541.948,537.5419999999998,0.0
51969.0,STARLINK-3680,PAYLOAD,2022-12-05 23:27:49,15.08849599,0.0003098,53.2172,329.9611,28.5446,331.5716,0.00013833,1.914e-05,0.0,0 STARLINK-3680,1 51969U 22025P   22339.97765835  .00001914  00000-0  13833-3 0  9996,2 51969  53.2172 329.9611 0003098  28.5446 331.5716 15.08849599 42709,6917.851,95.437,541.859,537.573,0.0
51969.0,STARLINK-3680,PAYLOAD,2022-12-06 05:49:22,15.08853967,0.0002969,53.2177,328.7692,30.1689,329.9474,5.2268e-05,5.44e-06,0.0,0 STARLINK-3680,1 51969U 22025P   22340.24261659  .00000544  00000-0  52268-4 0  9997,2 51969  53.2177 328.7692 0002969  30.1689 329.9474 15.08853967 41631,6917.8380000000025,95.437,541.757,537.649,0.0
51969.0,STARLINK-3680,PAYLOAD,2022-12-06 16:57:05,15.08840797,0.000372,53.2175,326.6947,28.82,331.2997,-5.5142e-05,-1.167e-05,0.0,0 STARLINK-3680,1 51969U 22025P   22340.70631002 -.00001167  00000-0 -55142-4 0  9999,2 51969  53.2175 326.6947 0003720  28.8200 331.2997 15.08840797 41709,6917.878000000002,95.438,542.316,537.17,0.0
51969.0,STARLINK-3680,PAYLOAD,2022-12-07 08:50:57,15.08834533,0.0003044,53.2159,323.714,32.774,327.344,-9.6502e-05,-1.824e-05,0.0,0 STARLINK-3680,1 51969U 22025P   22341.36871559 -.00001824  00000-0 -96502-4 0  9990,2 51969  53.2159 323.7140 0003044  32.7740 327.3440 15.08834533 42910,6917.897,95.438,541.868,537.656,0.0
51969.0,STARLINK-3680,PAYLOAD,2022-12-08 05:30:56,15.08845948,0.0002833,53.2177,319.8486,31.0645,329.0514,1.0487e-05,-1.22e-06,0.0,0 STARLINK-3680,1 51969U 22025P   22342.22982418 -.00000122  00000-0  10487-4 0  9990,2 51969  53.2177 319.8486 0002833  31.0645 329.0514 15.08845948 43048,6917.861999999999,95.437,541.687,537.7669999999998,0.0
51969.0,STARLINK-3680,PAYLOAD,2022-12-08 15:03:14,15.08852092,0.0002792,53.2179,318.0643,32.9003,327.2162,0.0001002,1.307e-05,0.0,0 STARLINK-3680,1 51969U 22025P   22342.62725625  .00001307  00000-0  10020-3 0  9996,2 51969  53.2179 318.0643 0002792  32.9003 327.2162 15.08852092 43102,6917.843000000003,95.437,541.64,537.7769999999998,0.0
51969.0,STARLINK-3680,PAYLOAD,2022-12-09 08:32:27,15.08867726,0.0002338,53.2188,314.7967,16.7284,343.3785,0.00036302,5.498e-05,0.0,0 STARLINK-3680,1 51969U 22025P   22343.35587576  .00005498  00000-0  36302-3 0  9994,2 51969  53.2188 314.7967 0002338  16.7284 343.3785 15.08867726 43213,6917.795999999999,95.436,541.278,538.043,0.0
51969.0,STARLINK-3680,PAYLOAD,2022-12-10 03:37:10,15.08812192,0.0003024,53.2188,311.2317,26.4128,333.7017,-0.00023167,-3.971e-05,0.0,0 STARLINK-3680,1 51969U 22025P   22344.15081852 -.00003971  00000-0 -23167-3 0  9990,2 51969  53.2188 311.2317 0003024  26.4128 333.7017 15.08812192 43333,6917.965,95.439,541.922,537.738,0.0
51969.0,STARLINK-3680,PAYLOAD,2022-12-10 08:23:17,15.08852428,0.0003025,53.2186,310.3381,30.0882,330.0284,0.00010448,1.375e-05,0.0,0 STARLINK-3680,1 51969U 22025P   22344.34950628  .00001375  00000-0  10448-3 0  9999,2 51969  53.2186 310.3381 0003025  30.0882 330.0284 15.08852428 43366,6917.842,95.437,541.8,537.615,0.0
51969.0,STARLINK-3680,PAYLOAD,2022-12-11 05:03:20,15.08832956,0.000238,53.2176,306.4685,33.1838,326.9303,-0.0001518,-2.703e-05,0.0,0 STARLINK-3680,1 51969U 22025P   22345.21064829 -.00002703  00000-0 -15180-3 0  9991,2 51969  53.2176 306.4685 0002380  33.1838 326.9303 15.08832956 43490,6917.901999999999,95.438,541.413,538.12,0.0
51969.0,STARLINK-3680,PAYLOAD,2022-12-12 06:29:29,15.08849621,0.0002697,53.2174,301.7095,24.5259,335.5861,0.0002376,3.496e-05,0.0,0 STARLINK-3680,1 51969U 22025P   22346.27047699  .00003496  00000-0  23760-3 0  9995,2 51969  53.2174 301.7095 0002697  24.5259 335.5861 15.08849621 43653,6917.851,95.437,541.582,537.85,0.0
51969.0,STARLINK-3680,PAYLOAD,2022-12-13 03:09:31,15.08829543,0.0001992,53.2181,297.8445,25.8221,334.287,2.2611e-05,7.2e-07,0.0,0 STARLINK-3680,1 51969U 22025P   22347.13161042  .00000072  00000-0  22611-4 0  9992,2 51969  53.2181 297.8445 0001992  25.8221 334.2870 15.08829543 43786,6917.9119999999975,95.438,541.155,538.399,0.0
51969.0,STARLINK-3680,PAYLOAD,2022-12-13 06:20:17,15.08830111,0.0002364,53.2176,297.2497,28.2228,331.8892,5.8425e-05,6.41e-06,0.0,0 STARLINK-3680,1 51969U 22025P   22347.26409122  .00000641  00000-0  58425-4 0  9994,2 51969  53.2176 297.2497 0002364  28.2228 331.8892 15.08830111 42698,6917.911,95.438,541.411,538.14,0.0
51969.0,STARLINK-3680,PAYLOAD,2022-12-13 20:38:44,15.0885398,0.0002568,53.2157,294.5721,32.6098,327.5053,-3.9029e-05,-9.1e-06,0.0,0 STARLINK-3680,1 51969U 22025P   22347.86024051 -.00000910  00000-0 -39029-4 0  9994,2 51969  53.2157 294.5721 0002568  32.6098 327.5053 15.08853980 43890,6917.8380000000025,95.437,541.479,537.9259999999998,0.0
51969.0,STARLINK-3680,PAYLOAD,2022-12-14 03:00:17,15.08852164,0.0002921,53.2177,293.3832,31.0533,329.0631,-2.7201e-05,-7.22e-06,0.0,0 STARLINK-3680,1 51969U 22025P   22348.12519928 -.00000722  00000-0 -27201-4 0  9996,2 51969  53.2177 293.3832 0002921  31.0533 329.0631 15.08852164 42826,6917.843000000003,95.437,541.729,537.688,0.0
51969.0,STARLINK-3680,PAYLOAD,2022-12-14 14:07:58,15.08853254,0.0002599,53.2181,291.3015,33.2656,326.8499,2.8191e-05,1.6e-06,0.0,0 STARLINK-3680,1 51969U 22025P   22348.58887248  .00000160  00000-0  28191-4 0  9992,2 51969  53.2181 291.3015 0002599  33.2656 326.8499 15.08853254 42898,6917.84,95.437,541.503,537.9069999999998,0.0
51969.0,STARLINK-3680,PAYLOAD,2022-12-15 06:01:50,15.08831382,0.0002848,53.2183,288.3295,31.3409,328.7752,8.330100000000001e-05,1.037e-05,0.0,0 STARLINK-3680,1 51969U 22025P   22349.25128224  .00001037  00000-0  83301-4 0  9997,2 51969  53.2183 288.3295 0002848  31.3409 328.7752 15.08831382 44105,6917.906999999997,95.438,541.742,537.802,0.0
51969.0,STARLINK-3680,PAYLOAD,2022-12-15 20:20:18,15.08840097,0.0002773,53.2186,285.653,26.0145,334.0986,3.2992e-05,2.37e-06,0.0,0 STARLINK-3680,1 51969U 22025P   22349.84743764  .00000237  00000-0  32992-4 0  9995,2 51969  53.2186 285.6530 0002773  26.0145 334.0986 15.08840097 43083,6917.88,95.438,541.663,537.827,0.0
51969.0,STARLINK-3680,PAYLOAD,2022-12-16 01:06:27,15.08842924,0.0002831,53.218,284.7608,26.498,333.6156,5.175e-05,5.35e-06,0.0,0 STARLINK-3680,1 51969U 22025P   22350.04615525  .00000535  00000-0  51750-4 0  9996,2 51969  53.2180 284.7608 0002831  26.4980 333.6156 15.08842924 44221,6917.871,95.437,541.695,537.778,0.0
